[{"OBJECT_NAME":"SL-16 R/B","OBJECT_ID":"1993-059B","EPOCH":"2026-03-25T10:16:40.876032","MEAN_MOTION":14.17235444,"ECCENTRICITY":0.00175913,"INCLINATION":70.9926,"RA_OF_ASC_NODE":337.9396,"ARG_OF_PERICENTER":193.7655,"MEAN_ANOMALY":166.2991,"EPHEMERIS_TYPE":0,"CLASSIFICATION_TYPE":"U","NORAD_CAT_ID":22803,"ELEMENT_SET_NO":999,"REV_AT_EPOCH":68176,"BSTAR":-4.116964e-6,"MEAN_MOTION_DOT":-5.6e-7,"MEAN_MOTION_DDOT":0},{"OBJECT_NAME":"ARIANE 40 R/B","OBJECT_ID":"1993-061H","EPOCH":"2026-03-25T11:31:31.776960","MEAN_MOTION":14.32869107,"ECCENTRICITY":0.00098295,"INCLINATION":98.4888,"RA_OF_ASC_NODE":153.0542,"ARG_OF_PERICENTER":232.9906,"MEAN_ANOMALY":127.038,"EPHEMERIS_TYPE":0,"CLASSIFICATION_TYPE":"U","NORAD_CAT_ID":22830,"ELEMENT_SET_NO":999,"REV_AT_EPOCH":69636,"BSTAR":9.54297e-5,"MEAN_MOTION_DOT":2.17e-6,"MEAN_MOTION_DDOT":0},{"OBJECT_NAME":"COSMOS 2278","OBJECT_ID":"1994-023A","EPOCH":"2026-03-25T10:33:18.421920","MEAN_MOTION":14.14376747,"ECCENTRICITY":0.0009034,"INCLINATION":71.0527,"RA_OF_ASC_NODE":142.1486,"ARG_OF_PERICENTER":347.9958,"MEAN_ANOMALY":12.0948,"EPHEMERIS_TYPE":0,"CLASSIFICATION_TYPE":"U","NORAD_CAT_ID":23087,"ELEMENT_SET_NO":999,"REV_AT_EPOCH":64703,"BSTAR":-0.00010586391,"MEAN_MOTION_DOT":-2.5e-6,"MEAN_MOTION_DDOT":0},{"OBJECT_NAME":"SL-16 R/B","OBJECT_ID":"1994-023B","EPOCH":"2026-03-25T14:53:39.260256","MEAN_MOTION":14.150129,"ECCENTRICITY":0.00054504,"INCLINATION":71.0008,"RA_OF_ASC_NODE":37.4282,"ARG_OF_PERICENTER":270.5028,"MEAN_ANOMALY":89.547,"EPHEMERIS_TYPE":0,"CLASSIFICATION_TYPE":"U","NORAD_CAT_ID":23088,"ELEMENT_SET_NO":999,"REV_AT_EPOCH":64834,"BSTAR":0.00018429823,"MEAN_MOTION_DOT":3.09e-6,"MEAN_MOTION_DDOT":0},{"OBJECT_NAME":"SL-16 R/B","OBJECT_ID":"1994-074B","EPOCH":"2026-03-25T08:09:54.831744","MEAN_MOTION":14.79424975,"ECCENTRICITY":0.0007036,"INCLINATION":97.7087,"RA_OF_ASC_NODE":114.5228,"ARG_OF_PERICENTER":158.523,"MEAN_ANOMALY":212.7284,"EPHEMERIS_TYPE":0,"CLASSIFICATION_TYPE":"U","NORAD_CAT_ID":23343,"ELEMENT_SET_NO":999,"REV_AT_EPOCH":68956,"BSTAR":6.8016128e-5,"MEAN_MOTION_DOT":4.58e-6,"MEAN_MOTION_DDOT":0},{"OBJECT_NAME":"SL-16 R/B","OBJECT_ID":"1994-077B","EPOCH":"2026-03-25T02:25:55.377696","MEAN_MOTION":14.15568755,"ECCENTRICITY":0.00021764,"INCLINATION":70.9841,"RA_OF_ASC_NODE":320.0679,"ARG_OF_PERICENTER":198.4264,"MEAN_ANOMALY":161.6781,"EPHEMERIS_TYPE":0,"CLASSIFICATION_TYPE":"U","NORAD_CAT_ID":23405,"ELEMENT_SET_NO":999,"REV_AT_EPOCH":61841,"BSTAR":7.2708701e-5,"MEAN_MOTION_DOT":9.4e-7,"MEAN_MOTION_DDOT":0},{"OBJECT_NAME":"ARIANE 40+ R/B","OBJECT_ID":"1995-021B","EPOCH":"2026-03-25T10:38:59.744256","MEAN_MOTION":14.39783404,"ECCENTRICITY":0.00079661,"INCLINATION":98.4469,"RA_OF_ASC_NODE":155.7108,"ARG_OF_PERICENTER":95.8031,"MEAN_ANOMALY":276.0236,"EPHEMERIS_TYPE":0,"CLASSIFICATION_TYPE":"U","NORAD_CAT_ID":23561,"ELEMENT_SET_NO":999,"REV_AT_EPOCH":62151,"BSTAR":0.00010700703,"MEAN_MOTION_DOT":2.92e-6,"MEAN_MOTION_DDOT":0},{"OBJECT_NAME":"SL-16 R/B","OBJECT_ID":"1995-058B","EPOCH":"2026-03-25T14:29:22.669440","MEAN_MOTION":14.15500284,"ECCENTRICITY":0.00101296,"INCLINATION":71.0212,"RA_OF_ASC_NODE":146.8466,"ARG_OF_PERICENTER":96.2802,"MEAN_ANOMALY":263.9475,"EPHEMERIS_TYPE":0,"CLASSIFICATION_TYPE":"U","NORAD_CAT_ID":23705,"ELEMENT_SET_NO":999,"REV_AT_EPOCH":57010,"BSTAR":-7.8378598e-5,"MEAN_MOTION_DOT":-2.01e-6,"MEAN_MOTION_DDOT":0},{"OBJECT_NAME":"SL-16 R/B","OBJECT_ID":"1996-051B","EPOCH":"2026-03-25T14:31:12.346464","MEAN_MOTION":14.12420062,"ECCENTRICITY":0.00137571,"INCLINATION":70.7591,"RA_OF_ASC_NODE":141.5543,"ARG_OF_PERICENTER":122.6136,"MEAN_ANOMALY":237.6313,"EPHEMERIS_TYPE":0,"CLASSIFICATION_TYPE":"U","NORAD_CAT_ID":24298,"ELEMENT_SET_NO":999,"REV_AT_EPOCH":52389,"BSTAR":7.3444387e-5,"MEAN_MOTION_DOT":8.6e-7,"MEAN_MOTION_DDOT":0},{"OBJECT_NAME":"ORBVIEW 2 (SEASTAR)","OBJECT_ID":"1997-037A","EPOCH":"2026-03-25T09:06:37.321632","MEAN_MOTION":14.35505525,"ECCENTRICITY":0.00025684,"INCLINATION":98.8595,"RA_OF_ASC_NODE":249.1094,"ARG_OF_PERICENTER":38.5994,"MEAN_ANOMALY":321.5373,"EPHEMERIS_TYPE":0,"CLASSIFICATION_TYPE":"U","NORAD_CAT_ID":24883,"ELEMENT_SET_NO":999,"REV_AT_EPOCH":51072,"BSTAR":0.00011694908,"MEAN_MOTION_DOT":2.9e-6,"MEAN_MOTION_DDOT":0},{"OBJECT_NAME":"SL-16 R/B","OBJECT_ID":"1998-043G","EPOCH":"2026-03-25T14:07:25.560192","MEAN_MOTION":14.26053338,"ECCENTRICITY":0.00093688,"INCLINATION":98.8281,"RA_OF_ASC_NODE":38.0672,"ARG_OF_PERICENTER":334.4546,"MEAN_ANOMALY":25.6169,"EPHEMERIS_TYPE":0,"CLASSIFICATION_TYPE":"U","NORAD_CAT_ID":25400,"ELEMENT_SET_NO":999,"REV_AT_EPOCH":44125,"BSTAR":5.3275888e-5,"MEAN_MOTION_DOT":8.2e-7,"MEAN_MOTION_DDOT":0},{"OBJECT_NAME":"SL-16 R/B","OBJECT_ID":"1998-045B","EPOCH":"2026-03-25T14:33:51.563520","MEAN_MOTION":14.16195047,"ECCENTRICITY":0.00078134,"INCLINATION":71.011,"RA_OF_ASC_NODE":148.1032,"ARG_OF_PERICENTER":343.0413,"MEAN_ANOMALY":17.0448,"EPHEMERIS_TYPE":0,"CLASSIFICATION_TYPE":"U","NORAD_CAT_ID":25407,"ELEMENT_SET_NO":999,"REV_AT_EPOCH":42935,"BSTAR":-8.450023e-5,"MEAN_MOTION_DOT":-2.15e-6,"MEAN_MOTION_DDOT":0},{"OBJECT_NAME":"ISS (ZARYA)","OBJECT_ID":"1998-067A","EPOCH":"2026-03-25T10:54:12.268224","MEAN_MOTION":15.48531543,"ECCENTRICITY":0.00062149,"INCLINATION":51.6344,"RA_OF_ASC_NODE":354.4276,"ARG_OF_PERICENTER":231.1671,"MEAN_ANOMALY":128.8763,"EPHEMERIS_TYPE":0,"CLASSIFICATION_TYPE":"U","NORAD_CAT_ID":25544,"ELEMENT_SET_NO":999,"REV_AT_EPOCH":55877,"BSTAR":0.00024672628,"MEAN_MOTION_DOT":0.00012951,"MEAN_MOTION_DDOT":0},{"OBJECT_NAME":"CZ-4B R/B","OBJECT_ID":"1999-025C","EPOCH":"2026-03-25T15:08:17.456640","MEAN_MOTION":14.18268409,"ECCENTRICITY":0.00360769,"INCLINATION":98.6595,"RA_OF_ASC_NODE":128.5325,"ARG_OF_PERICENTER":299.8756,"MEAN_ANOMALY":230.4022,"EPHEMERIS_TYPE":0,"CLASSIFICATION_TYPE":"U","NORAD_CAT_ID":25732,"ELEMENT_SET_NO":999,"REV_AT_EPOCH":39042,"BSTAR":4.3682816e-5,"MEAN_MOTION_DOT":4.7e-7,"MEAN_MOTION_DDOT":0},{"OBJECT_NAME":"OKEAN-O","OBJECT_ID":"1999-039A","EPOCH":"2026-03-25T14:29:34.757664","MEAN_MOTION":14.80360029,"ECCENTRICITY":9.044e-5,"INCLINATION":97.941,"RA_OF_ASC_NODE":144.3311,"ARG_OF_PERICENTER":85.756,"MEAN_ANOMALY":274.3755,"EPHEMERIS_TYPE":0,"CLASSIFICATION_TYPE":"U","NORAD_CAT_ID":25860,"ELEMENT_SET_NO":999,"REV_AT_EPOCH":43674,"BSTAR":9.4942511e-5,"MEAN_MOTION_DOT":6.72e-6,"MEAN_MOTION_DDOT":0},{"OBJECT_NAME":"SL-16 R/B","OBJECT_ID":"1999-039B","EPOCH":"2026-03-25T13:39:02.636064","MEAN_MOTION":14.81752331,"ECCENTRICITY":0.00143008,"INCLINATION":97.9932,"RA_OF_ASC_NODE":143.6391,"ARG_OF_PERICENTER":200.9292,"MEAN_ANOMALY":159.1337,"EPHEMERIS_TYPE":0,"CLASSIFICATION_TYPE":"U","NORAD_CAT_ID":25861,"ELEMENT_SET_NO":999,"REV_AT_EPOCH":43921,"BSTAR":7.6658968e-5,"MEAN_MOTION_DOT":5.51e-6,"MEAN_MOTION_DDOT":0},{"OBJECT_NAME":"DELTA 2 R/B","OBJECT_ID":"1999-041E","EPOCH":"2026-03-25T10:34:29.929152","MEAN_MOTION":14.11872368,"ECCENTRICITY":0.05026275,"INCLINATION":51.7606,"RA_OF_ASC_NODE":238.3603,"ARG_OF_PERICENTER":34.8879,"MEAN_ANOMALY":328.3938,"EPHEMERIS_TYPE":0,"CLASSIFICATION_TYPE":"U","NORAD_CAT_ID":25876,"ELEMENT_SET_NO":999,"REV_AT_EPOCH":36525,"BSTAR":0.0001435829,"MEAN_MOTION_DOT":6.46e-6,"MEAN_MOTION_DDOT":0}]
